TDRS 3                  
1 19548U 88091B   24064.17479689 -.00000288  00000+0  00000+0 0  9997
2 19548  13.2444 346.6557 0039639 340.3918 209.3435  1.00277280117014
FLTSATCOM 8 (USA 46)    
1 20253U 89077A   24064.60654177 -.00000357  00000+0  00000+0 0  9999
2 20253  12.6666 356.1976 0006821 350.5008 160.3691  1.00274374252256
SKYNET 4C               
1 20776U 90079A   24063.93799362  .00000136  00000+0  00000+0 0  9998
2 20776  13.6105 355.5233 0002921 356.0261 181.7098  1.00271826122515
TDRS 5                  
1 21639U 91054B   24064.45710235 -.00000054  00000+0  00000+0 0  9991
2 21639  14.1769 359.8763 0002559 335.9819 229.5491  1.00656709119345
TDRS 6                  
1 22314U 93003B   24064.52435073 -.00000287  00000+0  00000+0 0  9998
2 22314  14.1598   3.1798 0006903 148.8378 153.5720  1.00268692114033
UFO 2 (USA 95)          
1 22787U 93056A   24064.02618855  .00000134  00000+0  00000+0 0  9996
2 22787  11.6279   7.9042 0004000 359.2931 193.1579  1.00269177110170
USA 99 (MILSTAR-1 1)    
1 22988U 94009A   24064.47756966 -.00000191  00000+0  00000+0 0  9997
2 22988  16.3459  36.5418 0003090 311.1023 257.0328  1.00273054 24598
UFO 4 (USA 108)         
1 23467U 95003A   24064.10558500 -.00000015  00000+0  00000+0 0  9994
2 23467   9.7188  15.7924 0001135 336.6599  20.0870  1.00273023106570
AMSC 1                  
1 23553U 95019A   24064.46551014 -.00000087  00000+0  00000+0 0  9998
2 23553  12.5330  22.0618 0006407 312.4741 248.2592  1.00273132105807
TDRS 7                  
1 23613U 95035B   24064.60779338 -.00000193  00000+0  00000+0 0  9998
2 23613  13.7254 353.9672 0025452  60.1073  52.4682  1.00269801104884
USA 115 (MILSTAR-1 2)   
1 23712U 95060A   24064.45852983 -.00000011  00000+0  00000+0 0  9996
2 23712  13.7623   9.7690 0003267 318.3336 239.6648  1.00274740 24510
INMARSAT 3-F1           
1 23839U 96020A   24064.56368741  .00000128  00000+0  00000+0 0  9997
2 23839   8.8463  53.7048 0003573 286.0267  57.0359  0.99989308101907
INMARSAT 3-F2           
1 24307U 96053A   24064.48105171 -.00000170  00000+0  00000+0 0  9999
2 24307   7.9468  61.8732 0005357 309.2364 239.9358  0.99981451100574
INMARSAT 3-F3           
1 24674U 96070A   24064.31844226 -.00000141  00000+0  00000+0 0  9996
2 24674   8.4949  57.0712 0004950 274.2459 108.8048  1.00008893 99569
GALAXY 25 (G-25)        
1 24812U 97026A   24064.54550743  .00000072  00000+0  00000+0 0  9997
2 24812   5.2728  77.2291 0009953 296.2410 209.8842  0.99090212 97956
INTELSAT 5 (IS-5)       
1 24916U 97046A   24064.24751885 -.00000058  00000+0  00000+0 0  9996
2 24916   8.5745  56.3310 0003345 240.1195 121.2757  1.00272122 97253
AMC-3 (GE-3)            
1 24936U 97050A   24064.48924938 -.00000256  00000+0  00000+0 0  9990
2 24936   6.0847  73.2654 0003399 292.7637 260.8107  1.00269934 44060
USA 134                 
1 25019U 97065A   24064.43452362 -.00000054  00000+0  00000+0 0  9997
2 25019  11.7844  27.5281 0004324 323.0653 216.2221  1.00268720 24585
INMARSAT 3-F5           
1 25153U 98006B   24064.43079396 -.00000285  00000+0  00000+0 0  9990
2 25153   7.8062  60.9685 0005087 285.9425 276.8546  1.00273726 95527
ASTRA 2A                
1 25462U 98050A   24064.58388441  .00000072  00000+0  00000+0 0  9995
2 25462   4.9793  78.6496 0003362 266.2979  85.2781  1.00270083 37965
SKYNET 4E               
1 25639U 99009B   24064.07103703 -.00000026  00000+0  00000+0 0  9996
2 25639  11.5751  13.6280 0003469 322.4144 210.5922  1.00273266 43015
ABS-6                   
1 25924U 99053A   24064.54493865 -.00000115  00000+0  00000+0 0  9994
2 25924   0.0475 279.7445 0003150  37.9446 200.2537  1.00272165 89471
UFO 10 (USA 146)        
1 25967U 99063A   24064.27341095 -.00000181  00000+0  00000+0 0  9992
2 25967   9.3978  31.0859 0003764 279.6721 287.2487  1.00268453 88976
GALAXY 11 (G-11)        
1 26038U 99071A   24064.50674382 -.00000051  00000+0  00000+0 0  9991
2 26038   4.5991  80.6007 0001122 329.9024 100.9574  1.00271787 88718
USA 148                 
1 26052U 00001A   24063.15882628  .00000046  00000+0  00000+0 0  9999
2 26052  10.5376  38.4425 0002310 290.6388  69.7694  1.00270524 24577
ASIASTAR                
1 26107U 00016A   24064.52175028 -.00000329  00000+0  00000+0 0  9992
2 26107   7.1569  66.5407 0004031 286.9811 102.0421  1.00268730 87559
USA 149 (DSP 20)        
1 26356U 00024A   24064.03831656  .00000103  00000+0  00000+0 0  9998
2 26356  12.5395  17.4733 0001249 284.3444  68.4538  1.00275186 24537
TDRS 8                  
1 26388U 00034A   24064.10958804  .00000103  00000+0  00000+0 0  9997
2 26388  11.3737  38.0662 0005550 264.7187  91.6195  1.00264110 86804
INTELSAT 9 (IS-9)       
1 26451U 00043A   24064.32341278 -.00000220  00000+0  00000+0 0  9994
2 26451   8.5578  56.5223 0004081 269.5485 279.8118  1.00380449 35775
NSS-11 (AAP-1)          
1 26554U 00059A   24064.55605016  .00000030  00000+0  00000+0 0  9991
2 26554   0.0511 297.8916 0003265  81.2707 159.7958  1.00272494 32923
USA 153                 
1 26575U 00065A   24064.29007781 -.00000317  00000+0  00000+0 0  9996
2 26575  10.1725  41.7262 0001911 304.1402  55.5134  1.00275547 24551
AMC-6 (GE-6)            
1 26580U 00067A   24064.44691793  .00000110  00000+0  00000+0 0  9993
2 26580   0.0370 321.8956 0002986  44.2985 178.3680  1.00271234 85527
INTELSAT 1R (IS-1R)     
1 26608U 00072A   24064.38893056 -.00000135  00000+0  00000+0 0  9997
2 26608   5.9884  73.7611 0001527 289.6502  96.3389  1.00271165 32950
ANIK F1                 
1 26624U 00076A   24064.39697473 -.00000057  00000+0  00000+0 0  9998
2 26624   3.0315  85.0089 0004720 295.0665 176.2756  1.00272305 34775
USA 157 (MILSTAR-2 2)   
1 26715U 01009A   24064.45568130  .00000020  00000+0  00000+0 0  9999
2 26715  10.6365  24.3653 0002959 319.4684 218.6385  1.00273369 24580
INTELSAT 10 (IS-10)     
1 26766U 01019A   24064.31818119 -.00000118  00000+0  00000+0 0  9995
2 26766   7.0707  67.6565 0003203 272.2527  98.7184  1.00164771 37251
INTELSAT 901 (IS-901)   
1 26824U 01024A   24064.49563341 -.00000197  00000+0  00000+0 0  9996
2 26824   0.0431 268.6812 0000880 117.6652 287.3184  1.00272214 14613
ASTRA 2C                
1 26853U 01025A   24064.28667935 -.00000254  00000+0  00000+0 0  9994
2 26853   6.1063  73.0953 0002860 277.3422 202.7419  1.00267845 36672
USA 159 (DSP 21)        
1 26880U 01033A   24064.27632331 -.00000289  00000+0  00000+0 0  9992
2 26880  11.9966  21.9429 0000973 333.2591 217.8099  1.00272954 24596
INTELSAT 902 (IS-902)   
1 26900U 01039A   24064.51229973 -.00000278  00000+0  00000+0 0  9990
2 26900   3.9932  81.8634 0002281 284.8720 290.3212  1.00269947 82321
USA 164 (MILSTAR-2 3)   
1 27168U 02001A   24064.57631344  .00000072  00000+0  00000+0 0  9993
2 27168  10.1939  26.3299 0101130 358.1723   4.7248  1.00275620 24593
INTELSAT 904 (IS-904)   
1 27380U 02007A   24064.42339152 -.00000210  00000+0  00000+0 0  9996
2 27380   4.8122  79.0310 0003106 296.9549 269.5965  1.00271640 43395
DIRECTV 5 (TEMPO 1)     
1 27426U 02023A   24064.55064177 -.00000052  00000+0  00000+0 0  9995
2 27426   2.7291  85.7155 0003434 268.1432 257.0314  1.00272513 79756
INTELSAT 905 (IS-905)   
1 27438U 02027A   24064.42443579 -.00000180  00000+0  00000+0 0  9997
2 27438   4.6371  79.6989 0002763 264.3027 306.9593  1.00272677 42998
GALAXY 3C (G-3C)        
1 27445U 02030A   24064.55360056 -.00000147  00000+0  00000+0 0  9994
2 27445   1.5734  88.3100 0001673 337.1062 201.8162  1.00271248 38122
INTELSAT 906 (IS-906)   
1 27513U 02041A   24064.50327417  .00000018  00000+0  00000+0 0  9997
2 27513   3.6674  83.1379 0003642 237.2158  87.7012  1.00273008 78652
TDRS 10                 
1 27566U 02055A   24064.18042442  .00000094  00000+0  00000+0 0  9990
2 27566   9.3654  46.1182 0006838 312.8220  57.2631  1.00271756 77850
NIMIQ 2                 
1 27632U 02062A   24064.46481642 -.00000062  00000+0  00000+0 0  9998
2 27632   7.4820  65.1850 0005108 280.1363 235.5397  1.00270479 35816
USA 167                 
1 27691U 03008A   24064.45287084  .00000058  00000+0  00000+0 0  9991
2 27691   9.2855  50.2836 0001628 273.0986 232.2658  1.00271932 24584
USA 169 (MILSTAR-2 4)   
1 27711U 03012A   24064.24482115 -.00000188  00000+0  00000+0 0  9993
2 27711  11.0694  36.0968 0099881 358.3496   8.3301  1.00272688 24584
ASIASAT 4               
1 27718U 03014A   24064.53027847 -.00000218  00000+0  00000+0 0  9995
2 27718   2.5574  86.2580 0003076 256.6564 158.2910  1.00270719 36933
HELLAS-SAT 2            
1 27811U 03020A   24064.28406833 -.00000078  00000+0  00000+0 0  9998
2 27811   5.2549  77.6836 0006598 252.0269 285.0849  1.00271951 34477
THURAYA-2               
1 27825U 03026A   24064.55813288  .00000132  00000+0  00000+0 0  9995
2 27825   7.5723  34.3471 0003064 293.2820  80.0761  1.00273427 75988
OPTUS C1                
1 27831U 03028B   24064.38866949 -.00000146  00000+0  00000+0 0  9993
2 27831   4.7779  79.3776 0006035 267.5655 111.3085  1.00273123 44697
GALAXY 23 (G-23)        
1 27854U 03034A   24064.55118826  .00000017  00000+0  00000+0 0  9994
2 27854   1.0341  90.4890 0002873 261.7980 248.0133  1.00271324 75373
USA 170                 
1 27875U 03040A   24064.21767010  .00000101  00000+0  00000+0 0  9996
2 27875   8.7095  55.2598 0002937 356.2149 205.5511  1.00275935 24619
GALAXY 13 (HORIZONS-1)  
1 27954U 03044A   24064.24252854  .00000138  00000+0  00000+0 0  9996
2 27954   0.0160 134.7584 0000821 192.9625 132.0395  1.00274835 38209
YAMAL 202               
1 28089U 03053A   24064.50674382 -.00000075  00000+0  00000+0 0  9990
2 28089   4.2215  80.9520 0003484 250.9990 176.7216  1.00272630 74338
UFO 11 (USA 174)        
1 28117U 03057A   24064.60890670 -.00000096  00000+0  00000+0 0  9990
2 28117   7.9042  37.0181 0002615 316.2835 104.0691  1.00272548 74084
